{
    "links": {
        "self": "http://www.neowsapp.com/rest/v1/neo/3893853?api_key=iIulBulltgU6a56xZRHN4H3l9WmuAYTsLGpBGhQ2"
    },
    "id": "3893853",
    "neo_reference_id": "3893853",
    "name": "(2019 XH)",
    "designation": "2019 XH",
    "nasa_jpl_url": "http://ssd.jpl.nasa.gov/sbdb.cgi?sstr=3893853",
    "absolute_magnitude_h": 22.2,
    "estimated_diameter": {
        "kilometers": {
            "estimated_diameter_min": 0.096506147,
            "estimated_diameter_max": 0.2157943048
        },
        "meters": {
            "estimated_diameter_min": 96.5061469579,
            "estimated_diameter_max": 215.7943048444
        },
        "miles": {
            "estimated_diameter_min": 0.059966121,
            "estimated_diameter_max": 0.134088323
        },
        "feet": {
            "estimated_diameter_min": 316.6212271853,
            "estimated_diameter_max": 707.9865871058
        }
    },
    "is_potentially_hazardous_asteroid": false,
    "close_approach_data": [
        {
            "close_approach_date": "2019-12-16",
            "close_approach_date_full": "2019-Dec-16 22:19",
            "epoch_date_close_approach": 1576534740000,
            "relative_velocity": {
                "kilometers_per_second": "25.8450578817",
                "kilometers_per_hour": "93042.2083739652",
                "miles_per_hour": "57812.8099754785"
            },
            "miss_distance": {
                "astronomical": "0.1471345104",
                "lunar": "57.2353245456",
                "kilometers": "22011009.359332848",
                "miles": "13677007.0046473824"
            },
            "orbiting_body": "Earth"
        }
    ],
    "orbital_data": {
        "orbit_id": "1",
        "orbit_determination_date": "2019-12-03 05:42:11",
        "first_observation_date": "2019-11-29",
        "last_observation_date": "2019-12-03",
        "data_arc_in_days": 4,
        "observations_used": 14,
        "orbit_uncertainty": "9",
        "minimum_orbit_intersection": ".07589",
        "jupiter_tisserand_invariant": "3.079",
        "epoch_osculation": "2458818.5",
        "eccentricity": ".7476125028431638",
        "semi_major_axis": "2.357907022215783",
        "inclination": "12.846001593542",
        "ascending_node_longitude": "65.64186216435222",
        "orbital_period": "1322.47795297361",
        "perihelion_distance": ".59510625186557",
        "perihelion_argument": "112.4086998192123",
        "aphelion_distance": "4.120707792565995",
        "perihelion_time": "2458879.360982984243",
        "mean_anomaly": "343.4326509375354",
        "mean_motion": ".2722162582676974",
        "equinox": "J2000",
        "orbit_class": {
            "orbit_class_type": "APO",
            "orbit_class_description": "Near-Earth asteroid orbits which cross the Earth’s orbit similar to that of 1862 Apollo",
            "orbit_class_range": "a (semi-major axis) > 1.0 AU; q (perihelion) < 1.017 AU"
        }
    },
    "is_sentry_object": false
}